#cP2024  2 12  0  0  0.00000000      96 ORBIT IGS20 HLM  IGS
## 2301  86400.00000000   900.00000000 60352 0.0000000000000
+   32   G01G02G03G04G05G06G07G08G09G10G11G12G13G14G15G16G17
+        G18G19G20G21G22G23G24G25G26G27G28G29G30G31G32  0  0
+          0  0  0  0  0  0  0  0  0  0  0  0  0  0  0  0  0
+          0  0  0  0  0  0  0  0  0  0  0  0  0  0  0  0  0
+          0  0  0  0  0  0  0  0  0  0  0  0  0  0  0  0  0
++         2  2  2  2  2  2  1  2  2  2  2  2  2  2  2  2  2
++         2  2  2  2  2  2  2  2  2  2  2  2  2  1  2  0  0
++         0  0  0  0  0  0  0  0  0  0  0  0  0  0  0  0  0
++         0  0  0  0  0  0  0  0  0  0  0  0  0  0  0  0  0
++         0  0  0  0  0  0  0  0  0  0  0  0  0  0  0  0  0
%c G  cc GPS ccc cccc cccc cccc cccc ccccc ccccc ccccc ccccc
%c cc cc ccc ccc cccc cccc cccc cccc ccccc ccccc ccccc ccccc
%f  1.2500000  1.025000000  0.00000000000  0.000000000000000
%f  0.0000000  0.000000000  0.00000000000  0.000000000000000
%i    0    0    0    0      0      0      0      0         0
%i    0    0    0    0      0      0      0      0         0
/* FINAL ORBIT COMBINATION FROM WEIGHTED AVERAGE OF:        
/* cod emr esa gfz grg jgx jpl mit ngs sio                  
/* REFERENCED TO GPS CLOCK AND TO WEIGHTED MEAN POLE:       
/* PCV:IGS20      OL/AL:FES2014b NONE     Y  ORB:CMB CLK:CMB
*  2024  2 12 20 15  0.00000000
PG01  11967.369998 -19134.895055  13396.119529    169.297378  4  5  5  47       
PG02  14115.203039 -11866.901934  19517.522848   -486.437063  5  5  1 102       
PG03  23212.936763 -12192.353317  -3965.780529    189.064588  2  4  4  67       
PG04  15444.904602  -5878.348783 -20805.550834    290.107651  5  5  5  78       
PG05 -24739.900830   4885.323734  -8652.545435   -161.572431  5  5  4  46       
PG06  -6800.616090 -20735.547494 -14991.751160    409.573829  3  6  5  75       
PG07   5161.299401 -25651.046511  -2168.648372    -60.425266  5  5  5  70       
PG08  21183.795610   1329.234096  16128.761810   -166.704319  5  5  5  83       
PG09   3052.680824 -16095.900102 -20976.900085     90.036237  7  6  5  87       
PG10   5158.456950  13917.453145  22226.651703      0.102836  3  6  5  84       
PG11 -12826.448160 -10073.578966 -20947.280986   -573.623510  5  5  5  70       
PG12 -24069.798460  10596.182816  -3733.002142   -477.354077  5  6  4  62       
PG13 -21385.186580 -11622.502617  10690.786608    624.943412  5  5  6  83       
PG14   -757.574574 -16017.797152  21171.108512    324.057491  5  5  6  76       
PG15 -21316.188693   1077.724969  15444.708197    127.042918  5  7  6  35       
PG16  23235.541430   2602.668677 -13356.416776   -364.050040  3  4  4  68       
PG17  -8705.218951 -20791.454384  14351.072292    717.193639  5  5  5  87       
PG18  -5094.488500  25921.928456  -1458.841597   -554.158136  3  5  4   6       
PG19 -16150.856807 -20616.967357   5271.296096    439.780578  4  6  3  87       
PG20 -18427.118328  -4057.306433 -18567.190962    387.743432  2  7  4  52       
PG21  15207.516416  -5363.214963  21416.273022    135.162619  4  6     97       
PG22  -8530.519363 -13277.237674  21759.178263     32.277741  5  4  3  69       
PG23  -8480.271811  17208.749617  18307.043328    154.836947  5  3  5  63       
PG24 -14699.875598   9848.639868  19277.883783   -430.658431  5  5  5  68       
PG25 -16339.502490  16743.994939 -12650.537707    488.387304  5     5  52       
PG26  15761.672918   8615.335084 -19815.707801    190.888828  4  6  5  83       
PG27  22917.584297  12352.025980   6036.101683     -3.464493  3  5  1  36       
PG28   6379.903379  22571.765086 -12485.214177   -128.936049  5  5  3  80       
PG29  -5755.036366  14549.576627 -21496.946556   -607.104041  7  6  5  91       
PG30  -2199.215370 -25196.014946   7773.715846   -433.410166  5  2  3  77       
PG31  11354.444151  14608.544043 -19115.783926   -227.744194  5  4  3  81       
PG32  13073.777821  20217.647394  11643.667433   -611.268731  5  6  5  64       
*  2024  2 12 20 30  0.00000000
PG01  11904.941807 -17409.632261  15600.089209    169.298670  4  4  5  57       
PG02  14165.326984  -9655.471417  20716.811748   -486.431597  5  5    100       
PG03  23543.547522 -12119.741644  -1079.255354    189.086532  2  4  4  79       
PG04  17220.343331  -4382.304354 -19767.256698    290.116137  5  6  4  84       
PG05 -23835.478440   4212.127815 -11209.309545   -161.573836  5  5  4  32       
PG06  -6470.944917 -22303.001899 -12717.071395    409.560552  4  6  5  72       
PG07   5432.065262 -25149.433182  -4991.661952    -60.433466  5  5  5  41       
PG08  22518.293232   2446.246553  14111.722874   -166.705956  5  5  5  81       
PG09   5072.707044 -14764.896751 -21564.031337     90.047551  7  6  6  82       
PG10   2880.250195  14898.653282  21970.889596      0.105111  3  6  5  58       
PG11 -12387.698422 -12376.525544 -19959.202966   -573.635124  6  6  5  52       
PG12 -24375.425049  10438.760468   -885.316843   -477.357487  5  6  4  60       
PG13 -22036.883514 -12522.145603   8105.163533    624.946521  4  6  6  82       
PG14   1478.687289 -16851.756868  20456.287677    324.066511  5  5  6  78       
PG15 -22735.507933     65.769739  13405.458011    127.046361  5  7  6  61       
PG16  21788.001107   3261.049177 -15491.871103   -364.042574  4  4  4  56       
PG17  -7295.698035 -19834.627263  16417.830271    717.192814  5  4  4  62       
PG18  -5279.827591  25562.332265  -4327.627517   -554.165608  3  4  4  52       
PG19 -15446.581326 -20243.719710   7989.862525    439.785324  5  6  3  91       
PG20 -16663.366035  -5408.197046 -19855.564553    387.742128  2  7  4  75       
PG21  15249.240150  -2970.049491  21944.494590    135.161402  4  6     84       
PG22  -6252.674012 -14086.895667  22053.174326     32.272076  5  4  3  80       
PG23 -10336.517424  17946.687255  16541.703038    154.844210  4  3  5  58       
PG24 -14811.422467   7485.234868  20248.817355   -430.664256  5  5  4  62       
PG25 -17601.158666  17051.044330 -10230.232294    488.388322  5     5  56       
PG26  13787.802108   9781.998473 -20699.099370    190.885198  4  6  5  83       
PG27  23246.020811  12848.798113   3264.697711     -3.467493  4  5  2  50       
PG28   6071.830938  23838.685371 -10041.263572   -128.947498  5  5  3  66       
PG29  -7659.258937  12974.553532 -21916.889720   -607.103356  7  6  5  86       
PG30  -1791.971090 -25885.277148   5084.899511   -433.405720  5  3  2  67       
PG31  10930.399168  16647.546799 -17583.627135   -227.744390  5  4  2  80       
PG32  11802.525624  19540.150483  13949.760825   -611.270519  5  7  5  49       
*  2024  2 12 20 45  0.00000000
PG01  11923.363110 -15445.088324  17525.456831    169.299979  5  4  5  78       
PG02  14338.734877  -7339.922400  21572.552917   -486.426385  5  6    104       
PG03  23585.362806 -11913.521250   1825.953266    189.108499  3  4  3  95       
PG04  18959.029850  -3060.732908 -18389.566049    290.124614  4  6  4  54       
PG05 -22728.807716   3353.212199 -13575.625244   -161.574963  5  5  4  33       
PG06  -6245.798600 -23614.937098 -10221.460284    409.547288  4  5  5  77       
PG07   5714.831790 -24341.412190  -7725.231434    -60.441581  5  4  5  46       
PG08  23701.079755   3366.808114  11855.243665   -166.707864  5  5  5  82       
PG09   7197.258132 -13517.214472 -21782.697841     90.058896  7  6  6  85       
PG10    701.463374  15984.256972  21343.054905      0.107465  3  6  5  43       
PG11 -12084.014697 -14568.092279 -18627.356506   -573.646748  6  7  5  75       
PG12 -24392.683643  10167.011069   1977.627156   -477.360972  5  6  4  65       
PG13 -22508.628471 -13187.281249   5380.806498    624.949701  3  6  6  96       
PG14   3581.760377 -17752.581835  19388.865290    324.075486  5  5  6  71       
PG15 -23975.041377   -772.347837  11131.077133    127.049982  5  7  6  67       
PG16  20171.252533   4080.960947 -17371.592307   -364.035148  4  4  4  77       
PG17  -5665.642374 -18828.793226  18208.392233    717.191651  6  4  4  63       
PG18  -5463.574549  24891.359718  -7121.066135   -554.173227  4  3  4  57       
PG19 -14487.637795 -19723.003018  10572.848145    439.790101  5  6  3  83       
PG20 -14869.868008  -6922.129577 -20799.151379    387.740776  3  7  4  87       
PG21  15419.378787   -554.177970  22108.702447    135.160038  4  6     81       
PG22  -4012.647450 -15020.607221  21982.074186     32.266496  5  4  3  66       
PG23 -11961.363074  18679.503089  14489.955342    154.851403  4  3  5  33       
PG24 -15036.226015   5041.485660  20855.999478   -430.669978  5  5  4  67       
PG25 -18599.422333  17286.018835  -7633.797341    488.389358  4  2  5  68       
PG26  11802.442196  11085.519188 -21232.856651    190.881663  4  6  5  95       
PG27  23335.672755  13156.897670    438.322387     -3.470545  4  5  3  51       
PG28   5834.035426  24833.723531  -7424.691647   -128.958853  5  5  3  72       
PG29  -9666.122351  11489.778814 -21961.241791   -607.102651  7  6  5  72       
PG30  -1432.665331 -26284.153194   2307.391386   -433.401285  5  3  2  73       
PG31  10622.263219  18519.648937 -15749.130478   -227.744519  5  4  2 100       
PG32  10289.869903  18800.203912  16020.922892   -611.272476  5  7  5  63       
EOF
